UNKNOWN                 
1 84188U          26048.49878220  .00139066  00000+0  67905-1 0  9991
2 84188  64.9038 197.5122 3546507  11.0903 355.0834  7.98789570 46482
UNKNOWN                 
1 84232U          26047.75770495  .00031623  00000+0  24699-1 0  9997
2 84232  20.3291 235.9887 6542082 133.2838 304.1757  3.20096550106795
UNKNOWN                 
1 84236U          26036.78252234  .00000949  00000+0  64780-2 0  9991
2 84236   9.3688 310.6253 6891501 142.9062 294.5637  2.62614918115421
UNKNOWN                 
1 84292U          26047.74436221  .00004385  00000+0  26194-2 0  9996
2 84292  23.8280  68.8713 4556190  39.0749 346.3998  6.22091902232173
UNKNOWN                 
1 84407U          26048.50252432  .00000280  00000+0  16148-1 0  9996
2 84407  19.4533 302.8703 7206281  97.6016 341.8062  2.05786974 77240
UNKNOWN                 
1 84575U          26046.42087108 -.00000312  00000+0 -10721-1 0  9996
2 84575  18.0224 137.0059 7111053  61.8755 351.0675  2.19872863 66884
UNKNOWN                 
1 84932U          26048.49714483  .00000776  00000+0  63206-2 0  9994
2 84932   2.0387 203.5724 6577570 131.9822  67.3782  3.00101718133780
UNKNOWN                 
1 85004U          26047.39849228  .00001383  00000+0  43575-3 0  9992
2 85004  98.4307  22.4991 0046332 326.6098 188.1934 14.41295170640355
UNKNOWN                 
1 85010U          26047.59789192  .00001030  00000+0  11168-2 0  9995
2 85010  99.2470 272.4953 0026321  78.1794 310.2412 13.75218262612974
UNKNOWN                 
1 85015U          26043.34303103  .00000513  00000+0  10722-3 0  9994
2 85015  74.0504 280.3183 0014966 175.2991 184.8320 14.62384300651612
UNKNOWN                 
1 85023U          26048.57647402  .00020318  00000+0  27547-2 0  9993
2 85023  99.8418  83.6252 0003081 137.8848  13.5595 14.78953393638698
UNKNOWN                 
1 85027U          26047.22239935  .00000130  00000+0  19901-3 0  9992
2 85027  66.0422 301.1548 0171636 155.6153 205.3155 13.74274617613616
