CCSDS_OMM_VERS = 2.0
CREATION_DATE  = 
ORIGINATOR     = 

OBJECT_NAME    = UNKNOWN
OBJECT_ID      = 
CENTER_NAME    = EARTH
REF_FRAME      = TEME
TIME_SYSTEM    = UTC
MEAN_ELEMENT_THEORY = SGP/SGP4

EPOCH          = 2026-02-17T11:58:14.782080
MEAN_MOTION    = 7.98789570
ECCENTRICITY   = .3546507
INCLINATION    = 64.9038
RA_OF_ASC_NODE = 197.5122
ARG_OF_PERICENTER = 11.0903
MEAN_ANOMALY   = 355.0834

EPHEMERIS_TYPE = 0
CLASSIFICATION_TYPE = U
NORAD_CAT_ID   = 84188
ELEMENT_SET_NO = 999
REV_AT_EPOCH   = 4648
BSTAR          = .67905E-1
MEAN_MOTION_DOT = .139066E-2
MEAN_MOTION_DDOT = 0

CCSDS_OMM_VERS = 2.0
CREATION_DATE  = 
ORIGINATOR     = 

OBJECT_NAME    = UNKNOWN
OBJECT_ID      = 
CENTER_NAME    = EARTH
REF_FRAME      = TEME
TIME_SYSTEM    = UTC
MEAN_ELEMENT_THEORY = SGP/SGP4

EPOCH          = 2026-02-16T18:11:05.707680
MEAN_MOTION    = 3.20096550
ECCENTRICITY   = .6542082
INCLINATION    = 20.3291
RA_OF_ASC_NODE = 235.9887
ARG_OF_PERICENTER = 133.2838
MEAN_ANOMALY   = 304.1757

EPHEMERIS_TYPE = 0
CLASSIFICATION_TYPE = U
NORAD_CAT_ID   = 84232
ELEMENT_SET_NO = 999
REV_AT_EPOCH   = 10679
BSTAR          = .24699E-1
MEAN_MOTION_DOT = .31623E-3
MEAN_MOTION_DDOT = 0

CCSDS_OMM_VERS = 2.0
CREATION_DATE  = 
ORIGINATOR     = 

OBJECT_NAME    = UNKNOWN
OBJECT_ID      = 
CENTER_NAME    = EARTH
REF_FRAME      = TEME
TIME_SYSTEM    = UTC
MEAN_ELEMENT_THEORY = SGP/SGP4

EPOCH          = 2026-02-05T18:46:49.930176
MEAN_MOTION    = 2.62614918
ECCENTRICITY   = .6891501
INCLINATION    = 9.3688
RA_OF_ASC_NODE = 310.6253
ARG_OF_PERICENTER = 142.9062
MEAN_ANOMALY   = 294.5637

EPHEMERIS_TYPE = 0
CLASSIFICATION_TYPE = U
NORAD_CAT_ID   = 84236
ELEMENT_SET_NO = 999
REV_AT_EPOCH   = 11542
BSTAR          = .6478E-2
MEAN_MOTION_DOT = .949E-5
MEAN_MOTION_DDOT = 0

CCSDS_OMM_VERS = 2.0
CREATION_DATE  = 
ORIGINATOR     = 

OBJECT_NAME    = UNKNOWN
OBJECT_ID      = 
CENTER_NAME    = EARTH
REF_FRAME      = TEME
TIME_SYSTEM    = UTC
MEAN_ELEMENT_THEORY = SGP/SGP4

EPOCH          = 2026-02-16T17:51:52.894944
MEAN_MOTION    = 6.22091902
ECCENTRICITY   = .455619
INCLINATION    = 23.8280
RA_OF_ASC_NODE = 68.8713
ARG_OF_PERICENTER = 39.0749
MEAN_ANOMALY   = 346.3998

EPHEMERIS_TYPE = 0
CLASSIFICATION_TYPE = U
NORAD_CAT_ID   = 84292
ELEMENT_SET_NO = 999
REV_AT_EPOCH   = 23217
BSTAR          = .26194E-2
MEAN_MOTION_DOT = .4385E-4
MEAN_MOTION_DDOT = 0

CCSDS_OMM_VERS = 2.0
CREATION_DATE  = 
ORIGINATOR     = 

OBJECT_NAME    = UNKNOWN
OBJECT_ID      = 
CENTER_NAME    = EARTH
REF_FRAME      = TEME
TIME_SYSTEM    = UTC
MEAN_ELEMENT_THEORY = SGP/SGP4

EPOCH          = 2026-02-17T12:03:38.101248
MEAN_MOTION    = 2.05786974
ECCENTRICITY   = .7206281
INCLINATION    = 19.4533
RA_OF_ASC_NODE = 302.8703
ARG_OF_PERICENTER = 97.6016
MEAN_ANOMALY   = 341.8062

EPHEMERIS_TYPE = 0
CLASSIFICATION_TYPE = U
NORAD_CAT_ID   = 84407
ELEMENT_SET_NO = 999
REV_AT_EPOCH   = 7724
BSTAR          = .16148E-1
MEAN_MOTION_DOT = .28E-5
MEAN_MOTION_DDOT = 0

CCSDS_OMM_VERS = 2.0
CREATION_DATE  = 
ORIGINATOR     = 

OBJECT_NAME    = UNKNOWN
OBJECT_ID      = 
CENTER_NAME    = EARTH
REF_FRAME      = TEME
TIME_SYSTEM    = UTC
MEAN_ELEMENT_THEORY = SGP/SGP4

EPOCH          = 2026-02-15T10:06:03.261312
MEAN_MOTION    = 2.19872863
ECCENTRICITY   = .7111053
INCLINATION    = 18.0224
RA_OF_ASC_NODE = 137.0059
ARG_OF_PERICENTER = 61.8755
MEAN_ANOMALY   = 351.0675

EPHEMERIS_TYPE = 0
CLASSIFICATION_TYPE = U
NORAD_CAT_ID   = 84575
ELEMENT_SET_NO = 999
REV_AT_EPOCH   = 6688
BSTAR          = -.10721E-1
MEAN_MOTION_DOT = -.312E-5
MEAN_MOTION_DDOT = 0

CCSDS_OMM_VERS = 2.0
CREATION_DATE  = 
ORIGINATOR     = 

OBJECT_NAME    = UNKNOWN
OBJECT_ID      = 
CENTER_NAME    = EARTH
REF_FRAME      = TEME
TIME_SYSTEM    = UTC
MEAN_ELEMENT_THEORY = SGP/SGP4

EPOCH          = 2026-02-17T11:55:53.313312
MEAN_MOTION    = 3.00101718
ECCENTRICITY   = .657757
INCLINATION    = 2.0387
RA_OF_ASC_NODE = 203.5724
ARG_OF_PERICENTER = 131.9822
MEAN_ANOMALY   = 67.3782

EPHEMERIS_TYPE = 0
CLASSIFICATION_TYPE = U
NORAD_CAT_ID   = 84932
ELEMENT_SET_NO = 999
REV_AT_EPOCH   = 13378
BSTAR          = .63206E-2
MEAN_MOTION_DOT = .776E-5
MEAN_MOTION_DDOT = 0

CCSDS_OMM_VERS = 2.0
CREATION_DATE  = 
ORIGINATOR     = 

OBJECT_NAME    = UNKNOWN
OBJECT_ID      = 
CENTER_NAME    = EARTH
REF_FRAME      = TEME
TIME_SYSTEM    = UTC
MEAN_ELEMENT_THEORY = SGP/SGP4

EPOCH          = 2026-02-16T09:33:49.732992
MEAN_MOTION    = 14.41295170
ECCENTRICITY   = .0046332
INCLINATION    = 98.4307
RA_OF_ASC_NODE = 22.4991
ARG_OF_PERICENTER = 326.6098
MEAN_ANOMALY   = 188.1934

EPHEMERIS_TYPE = 0
CLASSIFICATION_TYPE = U
NORAD_CAT_ID   = 85004
ELEMENT_SET_NO = 999
REV_AT_EPOCH   = 64035
BSTAR          = .43575E-3
MEAN_MOTION_DOT = .1383E-4
MEAN_MOTION_DDOT = 0

CCSDS_OMM_VERS = 2.0
CREATION_DATE  = 
ORIGINATOR     = 

OBJECT_NAME    = UNKNOWN
OBJECT_ID      = 
CENTER_NAME    = EARTH
REF_FRAME      = TEME
TIME_SYSTEM    = UTC
MEAN_ELEMENT_THEORY = SGP/SGP4

EPOCH          = 2026-02-16T14:20:57.861888
MEAN_MOTION    = 13.75218262
ECCENTRICITY   = .0026321
INCLINATION    = 99.2470
RA_OF_ASC_NODE = 272.4953
ARG_OF_PERICENTER = 78.1794
MEAN_ANOMALY   = 310.2412

EPHEMERIS_TYPE = 0
CLASSIFICATION_TYPE = U
NORAD_CAT_ID   = 85010
ELEMENT_SET_NO = 999
REV_AT_EPOCH   = 61297
BSTAR          = .11168E-2
MEAN_MOTION_DOT = .103E-4
MEAN_MOTION_DDOT = 0

CCSDS_OMM_VERS = 2.0
CREATION_DATE  = 
ORIGINATOR     = 

OBJECT_NAME    = UNKNOWN
OBJECT_ID      = 
CENTER_NAME    = EARTH
REF_FRAME      = TEME
TIME_SYSTEM    = UTC
MEAN_ELEMENT_THEORY = SGP/SGP4

EPOCH          = 2026-02-12T08:13:57.880992
MEAN_MOTION    = 14.62384300
ECCENTRICITY   = .0014966
INCLINATION    = 74.0504
RA_OF_ASC_NODE = 280.3183
ARG_OF_PERICENTER = 175.2991
MEAN_ANOMALY   = 184.8320

EPHEMERIS_TYPE = 0
CLASSIFICATION_TYPE = U
NORAD_CAT_ID   = 85015
ELEMENT_SET_NO = 999
REV_AT_EPOCH   = 65161
BSTAR          = .10722E-3
MEAN_MOTION_DOT = .513E-5
MEAN_MOTION_DDOT = 0

CCSDS_OMM_VERS = 2.0
CREATION_DATE  = 
ORIGINATOR     = 

OBJECT_NAME    = UNKNOWN
OBJECT_ID      = 
CENTER_NAME    = EARTH
REF_FRAME      = TEME
TIME_SYSTEM    = UTC
MEAN_ELEMENT_THEORY = SGP/SGP4

EPOCH          = 2026-02-17T13:50:07.355328
MEAN_MOTION    = 14.78953393
ECCENTRICITY   = .0003081
INCLINATION    = 99.8418
RA_OF_ASC_NODE = 83.6252
ARG_OF_PERICENTER = 137.8848
MEAN_ANOMALY   = 13.5595

EPHEMERIS_TYPE = 0
CLASSIFICATION_TYPE = U
NORAD_CAT_ID   = 85023
ELEMENT_SET_NO = 999
REV_AT_EPOCH   = 63869
BSTAR          = .27547E-2
MEAN_MOTION_DOT = .20318E-3
MEAN_MOTION_DDOT = 0

CCSDS_OMM_VERS = 2.0
CREATION_DATE  = 
ORIGINATOR     = 

OBJECT_NAME    = UNKNOWN
OBJECT_ID      = 
CENTER_NAME    = EARTH
REF_FRAME      = TEME
TIME_SYSTEM    = UTC
MEAN_ELEMENT_THEORY = SGP/SGP4

EPOCH          = 2026-02-16T05:20:15.303840
MEAN_MOTION    = 13.74274617
ECCENTRICITY   = .0171636
INCLINATION    = 66.0422
RA_OF_ASC_NODE = 301.1548
ARG_OF_PERICENTER = 155.6153
MEAN_ANOMALY   = 205.3155

EPHEMERIS_TYPE = 0
CLASSIFICATION_TYPE = U
NORAD_CAT_ID   = 85027
ELEMENT_SET_NO = 999
REV_AT_EPOCH   = 61361
BSTAR          = .19901E-3
MEAN_MOTION_DOT = .13E-5
MEAN_MOTION_DDOT = 0

